{
"type": "FeatureCollection",
"name": "aubiet",
"crs": { "type": "name", "properties": { "name": "urn:ogc:def:crs:OGC:1.3:CRS84" } },
"features": [
{ "type": "Feature", "properties": { "fid": 11819, "cleabs": "COMMUNE_0000000000032012", "nom_officiel": "Aubiet", "nom_officiel_en_majuscules": "AUBIET", "statut": "Commune simple", "code_insee": "32012", "population": 1134, "date_du_recensement": "2023-01-01", "organisme_recenseur": "INSEE", "code_insee_du_canton": "3205", "code_insee_de_l_arrondissement": "321", "code_insee_du_departement": "32", "code_insee_de_la_region": "76", "codes_siren_des_epci": "200042372", "code_siren": "213200124", "code_postal": "32270", "superficie_cadastrale": 3900 }, "geometry": { "type": "MultiPolygon", "coordinates": [ [ [ [ 0.723383862522233, 43.669920708532622 ], [ 0.72340535218351, 43.670784431861691 ], [ 0.723599401135125, 43.672424123746481 ], [ 0.723722730955081, 43.67315945346941 ], [ 0.723404292161066, 43.673370632321607 ], [ 0.723092034717993, 43.673519827109942 ], [ 0.72276582302523, 43.673676830518794 ], [ 0.722154644769856, 43.673982696574171 ], [ 0.722085547858327, 43.674036160581373 ], [ 0.72186759352425, 43.674121613757173 ], [ 0.721766134359026, 43.674178000427581 ], [ 0.721698549588637, 43.674255800846083 ], [ 0.721588424154508, 43.674467737637805 ], [ 0.721509923788978, 43.674570514447858 ], [ 0.721290142256367, 43.674701837671513 ], [ 0.721091162759829, 43.674871404103243 ], [ 0.720916536796949, 43.675052282760369 ], [ 0.720837416482296, 43.675108236577202 ], [ 0.72033324487838, 43.675248901176047 ], [ 0.719920119257782, 43.675345562797268 ], [ 0.719374597783841, 43.675465552122922 ], [ 0.719285016628994, 43.675472675507855 ], [ 0.719230728088678, 43.675496742260336 ], [ 0.719134421605418, 43.675579340063997 ], [ 0.719169767771574, 43.675875342155592 ], [ 0.719200093732994, 43.676235152201208 ], [ 0.719227096219401, 43.676584990577425 ], [ 0.719231933864593, 43.676775031280386 ], [ 0.719217281822769, 43.677080787338483 ], [ 0.719223372645871, 43.677239347859285 ], [ 0.719260373190991, 43.677400356931919 ], [ 0.719369732444943, 43.677675406593458 ], [ 0.719532926405626, 43.678000195007222 ], [ 0.71962893411822, 43.678205650141216 ], [ 0.719711525292495, 43.678405422806911 ], [ 0.719786273997908, 43.678646439617772 ], [ 0.719849735233795, 43.678952933444101 ], [ 0.719899028000015, 43.679272633081425 ], [ 0.719927803683389, 43.679546893287522 ], [ 0.719935695230637, 43.679722595294947 ], [ 0.719943506489241, 43.67983798306026 ], [ 0.720186969552083, 43.679860189891677 ], [ 0.720521152656971, 43.679877996114435 ], [ 0.720925094939317, 43.679888261134295 ], [ 0.721370006039886, 43.679897582545664 ], [ 0.721716595354088, 43.679884138432335 ], [ 0.721987026995572, 43.679851994685663 ], [ 0.722290359687117, 43.679803435697941 ], [ 0.722990590841089, 43.679661464291314 ], [ 0.723389252307628, 43.67958609192015 ], [ 0.723649981621101, 43.679548339900904 ], [ 0.723885138470765, 43.679529856232257 ], [ 0.724230128394444, 43.679525372566175 ], [ 0.724785870751035, 43.679523496125164 ], [ 0.725168671759481, 43.67953510356368 ], [ 0.725467486110341, 43.679537751906757 ], [ 0.725681359989899, 43.679524220420561 ], [ 0.725835783044836, 43.679508545337974 ], [ 0.726203589933419, 43.679460423392442 ], [ 0.726539699909418, 43.679429641407701 ], [ 0.726839013386672, 43.679419693833708 ], [ 0.727201923498115, 43.679401172314606 ], [ 0.727573508464885, 43.679382830827642 ], [ 0.728070833007583, 43.679352711600941 ], [ 0.728608064166462, 43.679317122187769 ], [ 0.728687735791332, 43.679309784075997 ], [ 0.728840534575006, 43.679272466415071 ], [ 0.729019314189385, 43.679268097639124 ], [ 0.729135594184454, 43.679275926491329 ], [ 0.729633937078672, 43.679407854579615 ], [ 0.730000710316126, 43.67951092924546 ], [ 0.730249259912823, 43.679592631812966 ], [ 0.730583556394855, 43.679732834498786 ], [ 0.730837841218241, 43.679826357751899 ], [ 0.731256663100861, 43.679962020381197 ], [ 0.731546006988512, 43.680047271369773 ], [ 0.73200030950076, 43.680195373436895 ], [ 0.732180851527539, 43.680240546272337 ], [ 0.732300851885815, 43.680248449264433 ], [ 0.732377162376884, 43.680232036516074 ], [ 0.732579611723374, 43.680162441872675 ], [ 0.732876504177848, 43.680057007693392 ], [ 0.733122506236406, 43.679983818927411 ], [ 0.733254834363312, 43.67996227174352 ], [ 0.733357910908692, 43.679959018686894 ], [ 0.7334974196194, 43.679975428546257 ], [ 0.733768076356723, 43.680031478294346 ], [ 0.734147823356384, 43.680120406160334 ], [ 0.734658542772995, 43.680253468917954 ], [ 0.735039283038592, 43.680348715594107 ], [ 0.735298326921348, 43.680416222043 ], [ 0.735492433720538, 43.680463472115861 ], [ 0.735632157566163, 43.680474482586369 ], [ 0.735878961150582, 43.680475119282818 ], [ 0.736084227221913, 43.680491094173604 ], [ 0.736197107958853, 43.680522249414999 ], [ 0.736338417771357, 43.680587302947153 ], [ 0.7365027021834, 43.680698743709968 ], [ 0.736715423536894, 43.68083999793916 ], [ 0.736923930516515, 43.680993766620759 ], [ 0.737062120036071, 43.681106463963005 ], [ 0.737220064505394, 43.68125287885497 ], [ 0.73738958623551, 43.681420238544639 ], [ 0.737580280648715, 43.681616844205436 ], [ 0.737798771230231, 43.681832031281246 ], [ 0.737983804315243, 43.682015015744128 ], [ 0.738122243430243, 43.682152922040011 ], [ 0.738194684189822, 43.68223454466596 ], [ 0.738280655107366, 43.682287642711934 ], [ 0.738302004969772, 43.68231239157744 ], [ 0.738360468254069, 43.682308206062551 ], [ 0.738525730093803, 43.682300839863245 ], [ 0.738938687724833, 43.682303123384457 ], [ 0.739446899204151, 43.682311885859221 ], [ 0.739815381661466, 43.682309641027842 ], [ 0.740061734407887, 43.682290454686843 ], [ 0.740473315235291, 43.682233291738015 ], [ 0.740750157081341, 43.682195833355486 ], [ 0.740885602588319, 43.682189644658997 ], [ 0.740964531834137, 43.682201185901491 ], [ 0.741001251741954, 43.682213650866302 ], [ 0.741123389058588, 43.68210456472525 ], [ 0.741229412392568, 43.682026650218859 ], [ 0.741366348524523, 43.681951177875433 ], [ 0.741569289423723, 43.681868974186976 ], [ 0.741794219085494, 43.681795328274077 ], [ 0.742152964452119, 43.68169385347602 ], [ 0.742732492596622, 43.681529445847175 ], [ 0.743360635437099, 43.68135884235835 ], [ 0.743502346850292, 43.681319473756041 ], [ 0.743924788713657, 43.681206712113081 ], [ 0.744140718596407, 43.681140976456739 ], [ 0.744425874183987, 43.681049670502254 ], [ 0.744794170748088, 43.680925880793239 ], [ 0.745031733759549, 43.680846189066166 ], [ 0.745398965352345, 43.680717874403264 ], [ 0.745660215571601, 43.680635071613111 ], [ 0.745863252542529, 43.680581667952289 ], [ 0.746098653298617, 43.680525333833017 ], [ 0.74635158112409, 43.68046486146595 ], [ 0.746700821156673, 43.680383879282829 ], [ 0.747076156813243, 43.680301636154624 ], [ 0.74742928962385, 43.680216231418342 ], [ 0.747987650393216, 43.680084664829465 ], [ 0.74862992668718, 43.679932327925421 ], [ 0.749080251798896, 43.679835426954291 ], [ 0.749297589203095, 43.679796715823002 ], [ 0.749503136504455, 43.679773963527452 ], [ 0.749677100148146, 43.679765860449173 ], [ 0.750035615972963, 43.679764275336176 ], [ 0.750282275378998, 43.679768477148535 ], [ 0.750569263949554, 43.679756409063394 ], [ 0.750882737076386, 43.679733185558852 ], [ 0.751270921960021, 43.679702504010066 ], [ 0.751646572081926, 43.679675162692902 ], [ 0.751974986696457, 43.679650444556657 ], [ 0.752086983856063, 43.679641056919081 ], [ 0.752211338840581, 43.679632824725651 ], [ 0.752492764865227, 43.679604433452326 ], [ 0.752657236434193, 43.679585327372251 ], [ 0.752816750638009, 43.679566118627108 ], [ 0.753812380906441, 43.680903642547982 ], [ 0.754013678234538, 43.680862790361772 ], [ 0.754300378718337, 43.680794895401789 ], [ 0.754566150756015, 43.680722966961739 ], [ 0.754840914725318, 43.680643121901184 ], [ 0.754991256595883, 43.680604816871096 ], [ 0.755101023158687, 43.680589078821228 ], [ 0.755236463316062, 43.680582872266669 ], [ 0.755411597463196, 43.680576584490282 ], [ 0.755485035480761, 43.680569998325474 ], [ 0.755550044781903, 43.680556936953998 ], [ 0.755598836974257, 43.680546241450529 ], [ 0.755614757765475, 43.681026364102685 ], [ 0.756164592300967, 43.680985497606727 ], [ 0.757335049542036, 43.680933121321388 ], [ 0.757949272229981, 43.680958386054108 ], [ 0.758778817432818, 43.681250035323352 ], [ 0.759588048890178, 43.68155386221126 ], [ 0.760892097180212, 43.682177530272341 ], [ 0.761012069327928, 43.682059376266416 ], [ 0.761105716092116, 43.682011794167465 ], [ 0.76125052833105, 43.681956263315179 ], [ 0.761404763195727, 43.681913528653581 ], [ 0.7616131785826, 43.681880910487187 ], [ 0.761882032090399, 43.681825230775267 ], [ 0.762134597651397, 43.681773716188509 ], [ 0.762386485475659, 43.681707784284825 ], [ 0.762570172622217, 43.681641349152592 ], [ 0.762740286608134, 43.681541328083014 ], [ 0.762919251120687, 43.681436987916868 ], [ 0.7630377425126, 43.681356608730901 ], [ 0.76316327317343, 43.681254769996919 ], [ 0.763521156481326, 43.680920062781283 ], [ 0.763795575133642, 43.680689859181115 ], [ 0.763884354664788, 43.680607968157297 ], [ 0.763999967467785, 43.680505924683132 ], [ 0.764102916423399, 43.680442328253484 ], [ 0.764331086583957, 43.680316493079239 ], [ 0.764761514360605, 43.68009309443471 ], [ 0.765155226447536, 43.679888743627501 ], [ 0.765379779368035, 43.679760131553209 ], [ 0.76562998305608, 43.679578035609595 ], [ 0.766060364734367, 43.679260113109159 ], [ 0.766380011521958, 43.679014629421189 ], [ 0.766621218090861, 43.678840448207282 ], [ 0.766706214874925, 43.678791783809224 ], [ 0.766791714574435, 43.678762033282752 ], [ 0.766891407429855, 43.678718171341217 ], [ 0.766967763754019, 43.678668429183517 ], [ 0.767020503140221, 43.6786200024751 ], [ 0.767176885567109, 43.678489987448096 ], [ 0.767365769334698, 43.67835343799667 ], [ 0.767580712365235, 43.678216522936864 ], [ 0.767722479010216, 43.678111412015035 ], [ 0.767798782664777, 43.677935644301904 ], [ 0.768096952297983, 43.677763529319414 ], [ 0.768508577413656, 43.677448813872033 ], [ 0.7689207017568, 43.677153010839589 ], [ 0.769419066322891, 43.676840071490439 ], [ 0.76981738861482, 43.676579989090342 ], [ 0.770142731480331, 43.676314808495114 ], [ 0.77029169335285, 43.676247649170577 ], [ 0.770383404437825, 43.676185617235618 ], [ 0.770437748669251, 43.676095814179611 ], [ 0.770508013642499, 43.675979332388899 ], [ 0.7705777326745, 43.675908747988792 ], [ 0.770641668990089, 43.675891154981578 ], [ 0.770912433217639, 43.675912907610183 ], [ 0.771292635939058, 43.675927000294578 ], [ 0.771509958334337, 43.675919751098078 ], [ 0.771687505026348, 43.675882881173187 ], [ 0.7718506702792, 43.675833113986648 ], [ 0.772094040831904, 43.675730079247941 ], [ 0.772378585100094, 43.675620685947401 ], [ 0.772645709061314, 43.675512735520272 ], [ 0.772907890677972, 43.675436189137336 ], [ 0.773196670522672, 43.675377289901292 ], [ 0.773439353550694, 43.675323747414353 ], [ 0.773530306757207, 43.675313007 ], [ 0.773622375346853, 43.675337395876319 ], [ 0.773847004197309, 43.675429310054419 ], [ 0.774020773950668, 43.675489577177437 ], [ 0.774163966171293, 43.675506910381337 ], [ 0.774297908438901, 43.675506950925381 ], [ 0.774466113616259, 43.675486988555676 ], [ 0.774584539670968, 43.675471408405855 ], [ 0.774728395736435, 43.675471651268793 ], [ 0.774846227865423, 43.675471361527691 ], [ 0.774928820763178, 43.675452347397155 ], [ 0.774983034196528, 43.675397646117133 ], [ 0.775051088647919, 43.675337826956834 ], [ 0.775120433923911, 43.675308639844111 ], [ 0.775220166186463, 43.675295377109435 ], [ 0.775324419328738, 43.675261502916271 ], [ 0.775341978097018, 43.675256461067441 ], [ 0.775424134485845, 43.67521673380606 ], [ 0.77547080708904, 43.675164578569486 ], [ 0.775504267145717, 43.675101351081906 ], [ 0.775515508793338, 43.675003462826844 ], [ 0.775596585327599, 43.674735971210666 ], [ 0.775681115162278, 43.674635081008951 ], [ 0.775843051886568, 43.67455287690521 ], [ 0.776151075766359, 43.674477260393026 ], [ 0.776639098804195, 43.674397221337081 ], [ 0.776933279376548, 43.674262808881309 ], [ 0.777294130398931, 43.674072147613337 ], [ 0.77765408867572, 43.673872465326156 ], [ 0.778022839942668, 43.673637855128248 ], [ 0.778198889915202, 43.673543333723835 ], [ 0.778356783891669, 43.673341321560343 ], [ 0.778466139254463, 43.673143718755234 ], [ 0.778607889531952, 43.673006188411577 ], [ 0.778886595460848, 43.672886757762157 ], [ 0.779079397542856, 43.672807879967522 ], [ 0.779109625919944, 43.672795894948557 ], [ 0.779478162267722, 43.67269450013864 ], [ 0.779634085744951, 43.67263917286796 ], [ 0.780145066458995, 43.672446166663242 ], [ 0.780608084385171, 43.672274683481746 ], [ 0.781066302281687, 43.672131005532364 ], [ 0.781413974064915, 43.672023777693703 ], [ 0.782082685352904, 43.671856484290103 ], [ 0.782796789092794, 43.671701814406212 ], [ 0.783456157439851, 43.671551425360384 ], [ 0.783868974493056, 43.671459020009266 ], [ 0.784267451006915, 43.671416730017462 ], [ 0.784683192788068, 43.67140899640998 ], [ 0.784899766175168, 43.671420609007754 ], [ 0.785133735003923, 43.671399269465105 ], [ 0.785439795286655, 43.67134159064512 ], [ 0.785824037699039, 43.671250396444762 ], [ 0.786214648371831, 43.671154829742804 ], [ 0.786389634799745, 43.671087278848596 ], [ 0.786520220099605, 43.671013423038183 ], [ 0.786660069683632, 43.670924452892741 ], [ 0.787055539827493, 43.670702959694538 ], [ 0.787535776339802, 43.67040577587624 ], [ 0.788071755363547, 43.670045812511482 ], [ 0.78819816742436, 43.669983572026752 ], [ 0.78840071042536, 43.669940882815709 ], [ 0.788938659002445, 43.669851003321945 ], [ 0.78926446368585, 43.669795515787804 ], [ 0.789273206918999, 43.669793893201849 ], [ 0.789764309154284, 43.669696756274931 ], [ 0.790371211850821, 43.669555161804148 ], [ 0.791126839578806, 43.669415684724541 ], [ 0.79144552589202, 43.66931953906505 ], [ 0.791608490774663, 43.669241834222433 ], [ 0.791661469207511, 43.669218605755994 ], [ 0.79183611403411, 43.669352674907174 ], [ 0.791926404612957, 43.669455325887206 ], [ 0.791956126121256, 43.669520740726405 ], [ 0.792011938833591, 43.669713607599647 ], [ 0.792057752049646, 43.669844160522089 ], [ 0.792111216665851, 43.669937062117206 ], [ 0.792193527885181, 43.67002154772328 ], [ 0.792274573983327, 43.67007450203986 ], [ 0.792347266591845, 43.670086779594548 ], [ 0.792524808180125, 43.670081381885566 ], [ 0.792639596510063, 43.67009541385039 ], [ 0.792712939349361, 43.670123007047508 ], [ 0.792805926962175, 43.670187905383692 ], [ 0.792831255761018, 43.670206422603144 ], [ 0.79300852316855, 43.670336942435931 ], [ 0.793115141932259, 43.670402117124603 ], [ 0.793223727499108, 43.670448428290712 ], [ 0.793331012650189, 43.670464107577459 ], [ 0.79347671105742, 43.670480566132817 ], [ 0.79357208985401, 43.670483401394769 ], [ 0.793702545407916, 43.670477046439622 ], [ 0.793934409745744, 43.670445743694088 ], [ 0.794054543991014, 43.670417575159334 ], [ 0.794141802768594, 43.670405842690059 ], [ 0.794232259560407, 43.67040767738397 ], [ 0.794343296936498, 43.670422531612942 ], [ 0.794583460015908, 43.670530020122257 ], [ 0.794913998100038, 43.670705952238912 ], [ 0.794980281809955, 43.670755904700087 ], [ 0.795111437382506, 43.670860281665483 ], [ 0.795299892230279, 43.671022530017247 ], [ 0.795441924508018, 43.671134328335633 ], [ 0.795579582427645, 43.671263140803298 ], [ 0.795843483700603, 43.671462923753822 ], [ 0.79606792542014, 43.671560188551553 ], [ 0.796166913623592, 43.671598200810571 ], [ 0.796135103122655, 43.670909835569908 ], [ 0.796145679124073, 43.670505879141089 ], [ 0.795965944771848, 43.670278097567596 ], [ 0.795721509167273, 43.670184928080111 ], [ 0.795703603325884, 43.66987671135918 ], [ 0.79711318254533, 43.669080729278598 ], [ 0.799746059866518, 43.668494018726456 ], [ 0.800413571644774, 43.668355395641164 ], [ 0.800650563753306, 43.668222465109721 ], [ 0.800789521613026, 43.668155963378013 ], [ 0.801053116123868, 43.668040672921748 ], [ 0.801483581404834, 43.667842340687898 ], [ 0.80181828667164, 43.667683478336315 ], [ 0.801938517708277, 43.667620197297857 ], [ 0.802044118168509, 43.667582724893769 ], [ 0.802482759261857, 43.667494372885635 ], [ 0.802929693177814, 43.667416088370182 ], [ 0.803276913977141, 43.667351090497547 ], [ 0.803560973818897, 43.667316321229187 ], [ 0.804114602757765, 43.667236586207807 ], [ 0.804510248186516, 43.667169861791045 ], [ 0.805017651142854, 43.667066685170596 ], [ 0.8054497439252, 43.666987190752906 ], [ 0.805581325938876, 43.666983544943498 ], [ 0.805654258571783, 43.666989517379264 ], [ 0.805871267935152, 43.666956989780687 ], [ 0.806333199516641, 43.666875393474776 ], [ 0.80660875384503, 43.666835944010366 ], [ 0.806923372725908, 43.666780178778751 ], [ 0.807661987988109, 43.666435011049025 ], [ 0.808420517321722, 43.665860701436031 ], [ 0.808991388752365, 43.665329414088454 ], [ 0.811163850723381, 43.663283917537534 ], [ 0.811599206249661, 43.66315045642709 ], [ 0.811617798579658, 43.663248046590716 ], [ 0.811647507529141, 43.663346760619191 ], [ 0.811685820829253, 43.66344744809404 ], [ 0.811740309869173, 43.663546660774571 ], [ 0.811859094813795, 43.663715578501993 ], [ 0.811988444942973, 43.663867605867075 ], [ 0.812159132110303, 43.664041168177278 ], [ 0.812307103221945, 43.664192669656842 ], [ 0.812477414653338, 43.664376125541743 ], [ 0.812657330323975, 43.664567875684021 ], [ 0.812842893051014, 43.664774141486575 ], [ 0.812983642965337, 43.664952501269759 ], [ 0.813114275584878, 43.665136058307148 ], [ 0.813220330901239, 43.665281314713788 ], [ 0.813312239079321, 43.665407383419108 ], [ 0.813420430280214, 43.66556168407557 ], [ 0.813524904940053, 43.665715909903106 ], [ 0.813761722201509, 43.665618954314915 ], [ 0.814018672047205, 43.665514301596573 ], [ 0.814198496007938, 43.665448604774255 ], [ 0.814472374995879, 43.66532268774003 ], [ 0.81491088913832, 43.665074057539755 ], [ 0.815335045538485, 43.664811635026247 ], [ 0.81564336196396, 43.664627897445271 ], [ 0.815845410121818, 43.664532039431698 ], [ 0.815938879876306, 43.664487109083922 ], [ 0.816034896069215, 43.664440429506747 ], [ 0.816080700294684, 43.664409844247814 ], [ 0.816229289416376, 43.66448033934067 ], [ 0.816533868599066, 43.664622377655903 ], [ 0.817023114574232, 43.664864438097439 ], [ 0.817172579515501, 43.665009661695862 ], [ 0.817211291850628, 43.665165264128667 ], [ 0.817236197938691, 43.665488016908604 ], [ 0.817122165614565, 43.665844886978924 ], [ 0.817087163385609, 43.666047617832476 ], [ 0.817093283921143, 43.666212467807057 ], [ 0.817084227445792, 43.6663851144828 ], [ 0.81714229706094, 43.666618518395062 ], [ 0.817076882155263, 43.667098784834273 ], [ 0.817318398748463, 43.667301665271154 ], [ 0.81761022329514, 43.667616273069328 ], [ 0.817871758791885, 43.667912269346225 ], [ 0.817526487989885, 43.668219492839434 ], [ 0.817079825040792, 43.668193425198062 ], [ 0.81712262172859, 43.66846972997714 ], [ 0.817268464669865, 43.668710296761034 ], [ 0.817237258544289, 43.668780782251822 ], [ 0.817359913714513, 43.669076692824824 ], [ 0.817442370112051, 43.669386198953212 ], [ 0.817476238238981, 43.669571409409158 ], [ 0.817549211617331, 43.669967139651874 ], [ 0.817715138117377, 43.670266618773113 ], [ 0.818092761345501, 43.670608151374331 ], [ 0.81858293199634, 43.67105545750146 ], [ 0.818923343066861, 43.671332330089214 ], [ 0.819220516406624, 43.6717352558775 ], [ 0.819405311375822, 43.671995504196509 ], [ 0.819598461149078, 43.672362137541654 ], [ 0.819696112719221, 43.672663845574135 ], [ 0.819848455729412, 43.673092671099553 ], [ 0.820013574730002, 43.673381328911738 ], [ 0.820416009027672, 43.673690945318015 ], [ 0.820909644879685, 43.674048295256618 ], [ 0.821139204079607, 43.674305836981304 ], [ 0.821395199691762, 43.674553105948604 ], [ 0.821489746094996, 43.674773736668151 ], [ 0.821475326057223, 43.674924673377248 ], [ 0.821450710295824, 43.675050201618866 ], [ 0.821405839934896, 43.675121315024796 ], [ 0.821283280953872, 43.675213376021411 ], [ 0.821107399547889, 43.675305268838201 ], [ 0.82083327445, 43.675404194573687 ], [ 0.820525114418841, 43.675550145734604 ], [ 0.820357741953121, 43.675679114178898 ], [ 0.820158854358642, 43.675886664245013 ], [ 0.820071423736465, 43.676065842729429 ], [ 0.820052638901087, 43.676266200412527 ], [ 0.819998315210644, 43.676716088506232 ], [ 0.820085394493901, 43.677263326975734 ], [ 0.820228258191125, 43.677420116474273 ], [ 0.820372042204033, 43.677683142406408 ], [ 0.820433014170031, 43.678003918945834 ], [ 0.820672558728837, 43.67835797866735 ], [ 0.820937755777728, 43.678722453501486 ], [ 0.821251847787661, 43.678975387791482 ], [ 0.821267361668081, 43.678926190042993 ], [ 0.821335714017701, 43.678857347105186 ], [ 0.82175253301696, 43.678561443024307 ], [ 0.822298450244826, 43.678164604593633 ], [ 0.822840026774652, 43.677783879555086 ], [ 0.822962520398163, 43.677693615585419 ], [ 0.823652697990571, 43.677188039323809 ], [ 0.824220305804349, 43.676774523255325 ], [ 0.824914281491838, 43.676266315266162 ], [ 0.825566519531765, 43.675746467039204 ], [ 0.826015083892539, 43.675397173727418 ], [ 0.826430296333313, 43.675076917215122 ], [ 0.826564102335904, 43.674982374899699 ], [ 0.826705616300269, 43.674880785251013 ], [ 0.8269700424002, 43.674742944764603 ], [ 0.827275225705293, 43.674707634838157 ], [ 0.827482735846946, 43.674631666654243 ], [ 0.827914294986929, 43.674337835780349 ], [ 0.828158796049717, 43.674136584171137 ], [ 0.828305976143418, 43.673918086324278 ], [ 0.828378936361822, 43.673596389564722 ], [ 0.828692051960774, 43.67325338328844 ], [ 0.82919064458566, 43.672859169430559 ], [ 0.829510760018337, 43.672658524267433 ], [ 0.829721270501446, 43.672535804302427 ], [ 0.829848558168238, 43.672351113467862 ], [ 0.830054530375306, 43.671987962929315 ], [ 0.83007613188369, 43.671777759394011 ], [ 0.829990082434141, 43.671528501962172 ], [ 0.829955869833599, 43.67118756365003 ], [ 0.82994281723265, 43.67091005790315 ], [ 0.830031707851948, 43.670691295545254 ], [ 0.830123710257926, 43.670423087179273 ], [ 0.830272521164151, 43.670193818333701 ], [ 0.830541907686014, 43.670055169016948 ], [ 0.83094042234767, 43.669879488128245 ], [ 0.831197931787234, 43.669825214111121 ], [ 0.831367598205029, 43.669765587296098 ], [ 0.831496168578475, 43.669710541671989 ], [ 0.831628217854368, 43.669661866286596 ], [ 0.831798033403273, 43.669631046459564 ], [ 0.832034898078719, 43.669597962409313 ], [ 0.83212661384536, 43.669566485305573 ], [ 0.832301424996229, 43.669469153525498 ], [ 0.832434527756546, 43.6693925936871 ], [ 0.832504366629163, 43.669316573131091 ], [ 0.832670881890926, 43.669143463270878 ], [ 0.832730112345428, 43.669052828859343 ], [ 0.832769303176493, 43.668869080148156 ], [ 0.832820952927138, 43.668683779439199 ], [ 0.832993782209505, 43.668245252401199 ], [ 0.833182094767848, 43.667725120656833 ], [ 0.83339527273789, 43.667170378625954 ], [ 0.83318826152497, 43.666676576046079 ], [ 0.833000894378903, 43.66638479670295 ], [ 0.833087006143683, 43.666075063051899 ], [ 0.83372966049197, 43.66511481258086 ], [ 0.833605399195718, 43.664859397173565 ], [ 0.834533161531673, 43.664163163341755 ], [ 0.835403028020383, 43.663357753034944 ], [ 0.835135067336783, 43.662803332946737 ], [ 0.835855572264617, 43.662472020809858 ], [ 0.835895321542789, 43.662470111466789 ], [ 0.836001755693087, 43.662442524992223 ], [ 0.836138502589907, 43.662400239242736 ], [ 0.836444684582761, 43.662303715671825 ], [ 0.836675202874709, 43.662240791454991 ], [ 0.836877835328613, 43.662161109533223 ], [ 0.837180009356592, 43.662039300325731 ], [ 0.837473102036165, 43.661928111383283 ], [ 0.837582894750253, 43.661877186580128 ], [ 0.837631893273243, 43.661860158178499 ], [ 0.837694554350477, 43.661842501299184 ], [ 0.837768433967373, 43.661823267181887 ], [ 0.837928226001725, 43.661761634435322 ], [ 0.838136082313162, 43.661674853018383 ], [ 0.83843855642474, 43.661544945175926 ], [ 0.838859424641322, 43.661366081733668 ], [ 0.839149098972442, 43.661246719275098 ], [ 0.839442726316215, 43.66112113365525 ], [ 0.839697266821193, 43.661012773507387 ], [ 0.84002850090233, 43.66087623170985 ], [ 0.840407679445199, 43.66075054267511 ], [ 0.840658416918435, 43.660677210205051 ], [ 0.841021471781906, 43.660584503991309 ], [ 0.841252079775737, 43.66051887175351 ], [ 0.8414355059109, 43.660455002845765 ], [ 0.84190986810113, 43.660270889026044 ], [ 0.842320229010271, 43.66010710653017 ], [ 0.842761642243912, 43.659908833287957 ], [ 0.84267290711998, 43.659828760956046 ], [ 0.842557796228421, 43.659724761685581 ], [ 0.842387740979818, 43.659532358841602 ], [ 0.842297660595171, 43.659389249972648 ], [ 0.842163069950839, 43.65911113746008 ], [ 0.84205300750009, 43.658873117579454 ], [ 0.84194046816247, 43.65863504844824 ], [ 0.841863456655949, 43.658474195919766 ], [ 0.841737750944043, 43.658256568405335 ], [ 0.84159159481421, 43.658022332367452 ], [ 0.841466878400169, 43.657844330166746 ], [ 0.841362091243929, 43.657729732965223 ], [ 0.841178505272247, 43.657567664272172 ], [ 0.840933126993996, 43.657367462732672 ], [ 0.840742889553731, 43.657184558105676 ], [ 0.840526516646716, 43.656971429613741 ], [ 0.84043247603245, 43.6568678465717 ], [ 0.84035360709403, 43.656756463578375 ], [ 0.840265690113064, 43.656589092427296 ], [ 0.840261966494968, 43.656457598738925 ], [ 0.840284157062315, 43.656329320207277 ], [ 0.84031815625, 43.656150868684968 ], [ 0.840341344559803, 43.655963201097016 ], [ 0.840327363979564, 43.655709085427034 ], [ 0.840304157855975, 43.655568203491519 ], [ 0.840215275155593, 43.655393612136521 ], [ 0.840128633388575, 43.655225366175216 ], [ 0.840036969049864, 43.655058820644804 ], [ 0.840028941312012, 43.655041558615252 ], [ 0.839888448982112, 43.65475612536293 ], [ 0.839781372008023, 43.654472256005 ], [ 0.839731080567169, 43.654260625435384 ], [ 0.839676438798421, 43.653901286492541 ], [ 0.839644280968832, 43.653504588746955 ], [ 0.839641536469707, 43.65321559139818 ], [ 0.839667009803294, 43.652868646145009 ], [ 0.83965325473136, 43.652641539312135 ], [ 0.839587471639485, 43.652413398680444 ], [ 0.839508759036689, 43.652199403226845 ], [ 0.839374250908562, 43.651952794284853 ], [ 0.83923219394134, 43.651742040466971 ], [ 0.839103086058272, 43.651549546493513 ], [ 0.838981020500184, 43.651334689044489 ], [ 0.838809759679572, 43.651010837686464 ], [ 0.838606274485959, 43.650588231065989 ], [ 0.838454633994861, 43.650270170079011 ], [ 0.838296002604678, 43.649874558584301 ], [ 0.838253288590251, 43.649659477938101 ], [ 0.838285050179832, 43.649474682393013 ], [ 0.838366864157164, 43.649080251364197 ], [ 0.83845256119221, 43.648615687396443 ], [ 0.838515152860527, 43.648435105440541 ], [ 0.838672679514771, 43.648202403057304 ], [ 0.838783596029221, 43.648055186438732 ], [ 0.838872640799263, 43.647929138075526 ], [ 0.83895942926716, 43.647830048713686 ], [ 0.83814735600429, 43.646749049160903 ], [ 0.837707411969395, 43.646121910378078 ], [ 0.83677471696154, 43.644888179987355 ], [ 0.83624940972857, 43.644126117721093 ], [ 0.836787602183132, 43.64385688877006 ], [ 0.837443080240122, 43.643468473301567 ], [ 0.837887266457878, 43.64325947790806 ], [ 0.838521067386906, 43.643018246122907 ], [ 0.83899454671675, 43.642788225821953 ], [ 0.839694533084163, 43.642369177968327 ], [ 0.840002090007471, 43.642167360453648 ], [ 0.84022812315146, 43.641990926207107 ], [ 0.840442496124779, 43.641762052578876 ], [ 0.840567839846095, 43.641428795675914 ], [ 0.840646528814263, 43.641149519614416 ], [ 0.839943868093448, 43.641245374431222 ], [ 0.839118778559952, 43.641366694995703 ], [ 0.838461497297874, 43.641475144076729 ], [ 0.838141364058104, 43.641517384632571 ], [ 0.8379912646248, 43.641520700266497 ], [ 0.837847697038102, 43.641515144348034 ], [ 0.837266962881258, 43.641499991185682 ], [ 0.835865661136792, 43.641518908654049 ], [ 0.834946234636804, 43.641446592464987 ], [ 0.83420690614476, 43.64136435497646 ], [ 0.834031768166314, 43.641308657958902 ], [ 0.833866368778339, 43.641257655357435 ], [ 0.833838188645731, 43.641248992650816 ], [ 0.832956609426034, 43.641093701801879 ], [ 0.832861719573996, 43.641079208274704 ], [ 0.832043425895946, 43.640954875846376 ], [ 0.831463896264121, 43.640842501711568 ], [ 0.830816114792704, 43.640732362987016 ], [ 0.830489549263281, 43.640780753562325 ], [ 0.830310468077629, 43.640829386688225 ], [ 0.830098942142112, 43.640785558735217 ], [ 0.829486535799118, 43.640690520246878 ], [ 0.828955532213637, 43.640606105425086 ], [ 0.828461015954737, 43.640572824135134 ], [ 0.827584598186575, 43.640543610519998 ], [ 0.827089401461305, 43.640528311957212 ], [ 0.827031305737666, 43.640458740773347 ], [ 0.826942191213818, 43.640324640267032 ], [ 0.826923795959657, 43.640254062426052 ], [ 0.826906673338806, 43.640182609897124 ], [ 0.826837341319578, 43.640049804929127 ], [ 0.826770668154314, 43.639944957087593 ], [ 0.826681531972295, 43.639844160733986 ], [ 0.825947778812602, 43.639354219434658 ], [ 0.824621625178764, 43.638243031530585 ], [ 0.824104934168911, 43.638761965560747 ], [ 0.823847997745061, 43.638674010014853 ], [ 0.823752164261097, 43.638586579062149 ], [ 0.823702656781756, 43.638454168964842 ], [ 0.823725833384832, 43.638300710895287 ], [ 0.82376699084545, 43.63822862446137 ], [ 0.823879959422479, 43.638093166422316 ], [ 0.824158114393424, 43.637817894584693 ], [ 0.824237028957773, 43.637697956871449 ], [ 0.82427476754916, 43.637585296072814 ], [ 0.823683787589444, 43.637677879902647 ], [ 0.823352937615571, 43.637741465123909 ], [ 0.823024793894588, 43.637766398005198 ], [ 0.82283346798915, 43.637811172897806 ], [ 0.822698179146113, 43.637848968800718 ], [ 0.822612214196326, 43.637860748726361 ], [ 0.822517921708525, 43.637863360467691 ], [ 0.822426652684541, 43.637851630629008 ], [ 0.821359332811587, 43.637041729658705 ], [ 0.820445399591295, 43.636533736791193 ], [ 0.819833805486164, 43.636255933028764 ], [ 0.819024566232354, 43.635863444169402 ], [ 0.818476822219547, 43.635536506565614 ], [ 0.817758711250401, 43.63506212506919 ], [ 0.818012828636842, 43.634930407228886 ], [ 0.818399677879231, 43.63473024290532 ], [ 0.81879415993913, 43.634524829693298 ], [ 0.819235313930107, 43.634297848377656 ], [ 0.819599385294128, 43.63410982480864 ], [ 0.819944229149155, 43.633938516858343 ], [ 0.820118371055959, 43.63385649750289 ], [ 0.820329457934229, 43.633780619562017 ], [ 0.820452115876158, 43.633748874474556 ], [ 0.820664208590436, 43.633711721552785 ], [ 0.820874208091276, 43.633697029438309 ], [ 0.821208418690503, 43.633674925564833 ], [ 0.821700241444946, 43.633646978341446 ], [ 0.821970680513138, 43.633639796307968 ], [ 0.821963310371748, 43.63360544379281 ], [ 0.821920779752382, 43.633550583883967 ], [ 0.821797850787302, 43.633459007782875 ], [ 0.82161450847657, 43.633326615131736 ], [ 0.821328847084789, 43.633114760286063 ], [ 0.821079209937595, 43.632933331071776 ], [ 0.820749758799045, 43.632699893869976 ], [ 0.820405689762695, 43.632459861618528 ], [ 0.820158466641978, 43.632280278919488 ], [ 0.821371729087924, 43.631953556644234 ], [ 0.822741653517722, 43.631612857297185 ], [ 0.823559779148203, 43.631084667986279 ], [ 0.823919122633568, 43.630726412831201 ], [ 0.824258922141627, 43.630360564416378 ], [ 0.824645868715643, 43.629862440494705 ], [ 0.825027787293574, 43.629366015122578 ], [ 0.825121087408799, 43.629095144920498 ], [ 0.825156062639189, 43.628859112467303 ], [ 0.825176512611537, 43.628810014938232 ], [ 0.825260580533858, 43.628717184318205 ], [ 0.825420000272594, 43.628597957596398 ], [ 0.825603628070728, 43.628461212558918 ], [ 0.825757537263412, 43.628323872688718 ], [ 0.826006621543255, 43.628094823831809 ], [ 0.826319251829451, 43.62782383963831 ], [ 0.826506828322295, 43.627680871365484 ], [ 0.826759439097114, 43.627522101016389 ], [ 0.826869925350448, 43.627451400531967 ], [ 0.826920635976538, 43.627388505912961 ], [ 0.826953909190619, 43.627327962970661 ], [ 0.826966746168724, 43.627250809206586 ], [ 0.826947082778285, 43.627181106677192 ], [ 0.826883945637854, 43.627114135328732 ], [ 0.8266696917298, 43.626882120134873 ], [ 0.826453696687336, 43.62699031556145 ], [ 0.826253298688549, 43.627046615507297 ], [ 0.825955252011369, 43.627096461086566 ], [ 0.825680164277507, 43.627096358391483 ], [ 0.825484328227337, 43.626901614246329 ], [ 0.824827888559484, 43.626272794182952 ], [ 0.824230022743084, 43.625831467993137 ], [ 0.823772672898713, 43.625540572353792 ], [ 0.823317271314351, 43.625067889275456 ], [ 0.822084009624286, 43.623935131024851 ], [ 0.820593040004262, 43.624172575580943 ], [ 0.820444374838917, 43.624237103097464 ], [ 0.819288245602102, 43.623358793391937 ], [ 0.821516678103086, 43.62246286353156 ], [ 0.820623898172697, 43.622154223212135 ], [ 0.819532587890516, 43.621853293528645 ], [ 0.819153162876595, 43.621762868346899 ], [ 0.818780483428993, 43.62169057963591 ], [ 0.818407088860084, 43.621474255974547 ], [ 0.818240593830801, 43.621258484807122 ], [ 0.818043574521811, 43.620933185909507 ], [ 0.81795087775455, 43.620862015276387 ], [ 0.817873044140436, 43.620823547368325 ], [ 0.817789026270981, 43.62081735954385 ], [ 0.8176039372808, 43.620829844578267 ], [ 0.817241392898373, 43.620849566320629 ], [ 0.816836240164855, 43.620881932639811 ], [ 0.816469878231104, 43.620904275486026 ], [ 0.816205277899314, 43.620922361371328 ], [ 0.815917428002532, 43.620932778350465 ], [ 0.815509313428101, 43.620945277555315 ], [ 0.815149517871914, 43.62095784664028 ], [ 0.814974366725151, 43.6209696269107 ], [ 0.814726653139133, 43.620999750348297 ], [ 0.81438660181141, 43.621046918597841 ], [ 0.81405270602958, 43.621095109745632 ], [ 0.813769776631398, 43.62113892455401 ], [ 0.813558548915152, 43.62115447734044 ], [ 0.813142657426252, 43.621143408050685 ], [ 0.812604162089832, 43.621130769375149 ], [ 0.812148377980079, 43.621126094217317 ], [ 0.811712643416883, 43.621115520047937 ], [ 0.811347616685584, 43.621102767809695 ], [ 0.810899156250554, 43.621068530865713 ], [ 0.810528489033366, 43.621041260272044 ], [ 0.810107406239096, 43.621036375602451 ], [ 0.810175951921572, 43.621123268644261 ], [ 0.810229743899108, 43.621207163965543 ], [ 0.810195731944259, 43.621221780657208 ], [ 0.810116633958483, 43.621248990593145 ], [ 0.809960433061573, 43.621316052231244 ], [ 0.809744874025141, 43.621412521441592 ], [ 0.809468752488056, 43.621537473487997 ], [ 0.809181555677537, 43.621660401331887 ], [ 0.808754352145783, 43.621848014600388 ], [ 0.80845456508129, 43.621976087473939 ], [ 0.808187723457066, 43.622085021343366 ], [ 0.807654863775262, 43.622443323244809 ], [ 0.807305168839548, 43.622677501069511 ], [ 0.806938962823414, 43.622922146151616 ], [ 0.806611619474937, 43.622895736693138 ], [ 0.805342336654385, 43.622131106765345 ], [ 0.805113869451013, 43.622240808245465 ], [ 0.804292160445645, 43.62134028501147 ], [ 0.803979053552101, 43.621524784385898 ], [ 0.803660785621655, 43.621714579360507 ], [ 0.803338252251461, 43.621886284733357 ], [ 0.802946277955808, 43.622091690157802 ], [ 0.802625564291859, 43.622248128194549 ], [ 0.802246758773195, 43.622433094631283 ], [ 0.801891822532734, 43.622577136828838 ], [ 0.801661115195787, 43.622648080496845 ], [ 0.801416274124657, 43.622699835073433 ], [ 0.801229833939082, 43.622714965478124 ], [ 0.801061278958373, 43.622716055452806 ], [ 0.800778017611085, 43.622800335849817 ], [ 0.800648043343256, 43.622861614365014 ], [ 0.800236936849791, 43.623016216135632 ], [ 0.79995449686177, 43.623111312614114 ], [ 0.799769181191656, 43.623193972882596 ], [ 0.799339006101433, 43.623425596291732 ], [ 0.798886403174394, 43.623660364340203 ], [ 0.798726088427141, 43.623737228425561 ], [ 0.798310743113703, 43.623872834674373 ], [ 0.797844666904034, 43.624006511227655 ], [ 0.797309316431597, 43.624169386086422 ], [ 0.796885608649893, 43.624296716395492 ], [ 0.796729522213297, 43.624360161443555 ], [ 0.796484927772981, 43.624501923146674 ], [ 0.796240567904274, 43.62466979285167 ], [ 0.795984459961503, 43.624756412112568 ], [ 0.795833939752881, 43.624836171167615 ], [ 0.795562620322824, 43.624963886916035 ], [ 0.795242810864763, 43.625063614352456 ], [ 0.794941441214867, 43.625134910872141 ], [ 0.794687355892563, 43.625233269922404 ], [ 0.794365356749558, 43.625422063349887 ], [ 0.794144848363648, 43.625774939569595 ], [ 0.793939995947264, 43.626236149044175 ], [ 0.793724334988184, 43.626720542335491 ], [ 0.793649305651029, 43.626931450172698 ], [ 0.793637258531372, 43.6271157326143 ], [ 0.793647341219386, 43.627240155521875 ], [ 0.793652505741488, 43.627363578457107 ], [ 0.793613648561249, 43.627471705549716 ], [ 0.793536675936724, 43.627604262486372 ], [ 0.793484674853281, 43.627731925607002 ], [ 0.793479821794505, 43.627890250369539 ], [ 0.793512434465706, 43.628008829866666 ], [ 0.793578063926693, 43.628138881280783 ], [ 0.793649061865552, 43.628258240059708 ], [ 0.793839084733333, 43.628601447709514 ], [ 0.793918986162672, 43.62874709091794 ], [ 0.793978053028383, 43.628854505583405 ], [ 0.79399870011385, 43.628962040500596 ], [ 0.79400086259664, 43.629131309391852 ], [ 0.793977276400521, 43.629390068961754 ], [ 0.793947928895027, 43.629573100430946 ], [ 0.793936828663637, 43.629829413124234 ], [ 0.793953400284522, 43.6300106763399 ], [ 0.794015857029617, 43.630191070682756 ], [ 0.794091208496908, 43.630390629538105 ], [ 0.794209062363307, 43.630645059021155 ], [ 0.794239829738541, 43.630876117754127 ], [ 0.794218569413297, 43.63104221106417 ], [ 0.794162671522538, 43.631206701254946 ], [ 0.794125782762113, 43.631424685187419 ], [ 0.794120736047125, 43.631684721615102 ], [ 0.794122842289621, 43.631952104345253 ], [ 0.794129904001711, 43.632058463569059 ], [ 0.794137804327333, 43.632561799330915 ], [ 0.792650316395525, 43.632377676107254 ], [ 0.789916283523931, 43.632028670089859 ], [ 0.789381555755084, 43.631754955366695 ], [ 0.787883967701387, 43.631640771499683 ], [ 0.787436235874643, 43.631489435969669 ], [ 0.787436917587659, 43.631407537424302 ], [ 0.787391977364264, 43.631159085004029 ], [ 0.787391629097008, 43.631071764689452 ], [ 0.787370264787508, 43.630983116386247 ], [ 0.787314042953771, 43.630834349425577 ], [ 0.787230324255147, 43.63062741389875 ], [ 0.787140820039441, 43.630441963789323 ], [ 0.787060447497284, 43.630308907439549 ], [ 0.786987528213568, 43.630207507558538 ], [ 0.786859720629816, 43.630083386653681 ], [ 0.786725571900953, 43.629995141894582 ], [ 0.786443886231405, 43.6298444831247 ], [ 0.786284522245941, 43.629767425998757 ], [ 0.786085083212289, 43.629701254040228 ], [ 0.785842953734227, 43.629649514286257 ], [ 0.785622314292089, 43.629618914980888 ], [ 0.785429390588907, 43.629608682984944 ], [ 0.785151918641234, 43.629605728979513 ], [ 0.784794308038982, 43.629592139474553 ], [ 0.784504870739687, 43.629578138290199 ], [ 0.784069863480886, 43.629579171048746 ], [ 0.783870840076614, 43.629598516413495 ], [ 0.78351853853221, 43.629639939299544 ], [ 0.783228566210553, 43.62967183077869 ], [ 0.783052330035991, 43.628749196473137 ], [ 0.7815633641816, 43.628478476022536 ], [ 0.780787908624603, 43.628279015957659 ], [ 0.780410491258101, 43.628201097680027 ], [ 0.780141365255599, 43.628238807358606 ], [ 0.77995375233713, 43.628283582373783 ], [ 0.779771645148626, 43.626521895569844 ], [ 0.779801984372015, 43.626442403304303 ], [ 0.779799194439553, 43.626162404067202 ], [ 0.779790101442906, 43.625757157272162 ], [ 0.779749818732265, 43.625197350240015 ], [ 0.775533333263549, 43.625988755279089 ], [ 0.773864256338604, 43.626242621482177 ], [ 0.773919756615041, 43.626440888535612 ], [ 0.774015486216269, 43.626720091883691 ], [ 0.774058414839998, 43.62689109726324 ], [ 0.77405242340896, 43.62714121293407 ], [ 0.773893438171279, 43.627342287772493 ], [ 0.773647555320773, 43.627451568407281 ], [ 0.773240899421334, 43.627520648712739 ], [ 0.772943514775106, 43.627647775444117 ], [ 0.772802352083396, 43.627772702279429 ], [ 0.772680437080601, 43.627976335539898 ], [ 0.772563144230994, 43.628156659823915 ], [ 0.772444861294095, 43.62826675285131 ], [ 0.772405109651153, 43.628364953389443 ], [ 0.771539106311591, 43.628583035761842 ], [ 0.771422413739626, 43.628620249041845 ], [ 0.770981091161884, 43.628720115186084 ], [ 0.770773692898383, 43.628763568604427 ], [ 0.770721142391128, 43.628808397814907 ], [ 0.770639092220562, 43.628942635901524 ], [ 0.770626802218991, 43.629067503308882 ], [ 0.77065536485992, 43.629639678521166 ], [ 0.77036487497786, 43.629716532262975 ], [ 0.770073146071225, 43.629793359825776 ], [ 0.769782689613075, 43.629869312596455 ], [ 0.76949219739867, 43.629946164018293 ], [ 0.769376305468471, 43.629962688400063 ], [ 0.768449333899901, 43.63015429178666 ], [ 0.76800189521225, 43.630219815308955 ], [ 0.767464833263979, 43.630263692862755 ], [ 0.76716482532612, 43.630266531045606 ], [ 0.76681212063176, 43.630222378326813 ], [ 0.766502487119376, 43.630217815748999 ], [ 0.76619285365626, 43.630213252289295 ], [ 0.765883220242421, 43.630208687947686 ], [ 0.765735576109132, 43.630181348904593 ], [ 0.765436608561798, 43.630125694417536 ], [ 0.76513643840016, 43.630069114225392 ], [ 0.764912525546415, 43.630059108657761 ], [ 0.76449753668309, 43.630055074011601 ], [ 0.764024301432498, 43.630114649748016 ], [ 0.763138211447314, 43.630210734003413 ], [ 0.763094504841894, 43.630822832332385 ], [ 0.763324832372769, 43.63301942475001 ], [ 0.762896306040851, 43.633012405392101 ], [ 0.762397266227832, 43.633002132349155 ], [ 0.762267067966318, 43.63300395248789 ], [ 0.76213506814229, 43.633591730282255 ], [ 0.762079484608562, 43.633936241893444 ], [ 0.762007010453146, 43.634237198748082 ], [ 0.76171989787221, 43.634956804658245 ], [ 0.760622444979249, 43.635226746631325 ], [ 0.760527021029396, 43.635734264085976 ], [ 0.760353419479273, 43.636180761019901 ], [ 0.760270454378867, 43.636718240278569 ], [ 0.759090002754303, 43.636764120834393 ], [ 0.759064012757386, 43.636128980159732 ], [ 0.75850986012965, 43.636132856018996 ], [ 0.758071341195987, 43.63615891752778 ], [ 0.75743582122751, 43.636215118497951 ], [ 0.756979054803327, 43.636454134520939 ], [ 0.756963355446874, 43.636665345659225 ], [ 0.757047078458173, 43.637028033380517 ], [ 0.755785249946121, 43.637316139653187 ], [ 0.754208129271831, 43.637711136608139 ], [ 0.753858182721622, 43.637658898005441 ], [ 0.753528519347089, 43.63765838609838 ], [ 0.753224298605775, 43.637672801534244 ], [ 0.752441915256903, 43.63771243566844 ], [ 0.75187412841054, 43.637747501419952 ], [ 0.751612070650074, 43.638519812377425 ], [ 0.751454463242801, 43.639030539235414 ], [ 0.751000984365955, 43.640290373482628 ], [ 0.750466558100139, 43.640169495963619 ], [ 0.749789627084833, 43.641058339296173 ], [ 0.748949893265965, 43.642304770418754 ], [ 0.748702095288512, 43.643406830455895 ], [ 0.748203534843366, 43.643413606907295 ], [ 0.747822244185325, 43.643401207031268 ], [ 0.747431969088574, 43.643459732020503 ], [ 0.746931328996675, 43.643677096290432 ], [ 0.745725655219144, 43.644738590502087 ], [ 0.745150334639731, 43.645404477701611 ], [ 0.744887548300734, 43.645940022082279 ], [ 0.744781280426636, 43.64656162794612 ], [ 0.744539293987412, 43.646662826411379 ], [ 0.74375765751399, 43.649955597973751 ], [ 0.743595778637131, 43.650099864847888 ], [ 0.744154490354554, 43.650204176175386 ], [ 0.744596591412774, 43.650279060627504 ], [ 0.745000223810737, 43.650354945673975 ], [ 0.745352398735176, 43.65041535946493 ], [ 0.745590049104119, 43.650456294246084 ], [ 0.745897420470862, 43.650521178139073 ], [ 0.745881814242448, 43.650571263610111 ], [ 0.745869888671976, 43.6506223255574 ], [ 0.745863589861034, 43.65065640109971 ], [ 0.745759540919355, 43.650685749359084 ], [ 0.744968445805798, 43.650753058233789 ], [ 0.744695368432489, 43.650793301933376 ], [ 0.744232451844897, 43.650995236026908 ], [ 0.743103281739388, 43.651525401317528 ], [ 0.742071138359919, 43.65198375721674 ], [ 0.741772813593705, 43.65212968875511 ], [ 0.741326473711068, 43.652350858859236 ], [ 0.740837304727886, 43.652589140562533 ], [ 0.740431377069527, 43.652791343325369 ], [ 0.740095385479749, 43.652949089980957 ], [ 0.739731536891452, 43.653121559329364 ], [ 0.739477620292566, 43.653241403186506 ], [ 0.739304294650208, 43.653329616153357 ], [ 0.739106687328833, 43.65343622739622 ], [ 0.738742758519814, 43.653641998083899 ], [ 0.738350300324765, 43.653848074337439 ], [ 0.738118533216848, 43.653971976622628 ], [ 0.737929454417207, 43.65405085813719 ], [ 0.737703709385696, 43.654116374068408 ], [ 0.737385195058289, 43.654207864145157 ], [ 0.737050997838487, 43.654319730730684 ], [ 0.736811904226523, 43.654409271535144 ], [ 0.736617582987238, 43.654495243068794 ], [ 0.736469588368851, 43.654601082268215 ], [ 0.736364563878031, 43.65468621191912 ], [ 0.736358227947026, 43.654689680673556 ], [ 0.736683105050458, 43.65468834264427 ], [ 0.737008257951074, 43.654742819738175 ], [ 0.737360305433621, 43.654838363061948 ], [ 0.737685487792752, 43.654954950233723 ], [ 0.737980656835284, 43.655078113327107 ], [ 0.738431817125543, 43.655112703445361 ], [ 0.738884216739967, 43.655147317455331 ], [ 0.739117636560134, 43.655170174886834 ], [ 0.739470047704284, 43.65522521135064 ], [ 0.739658656405186, 43.655284042747802 ], [ 0.739793004647597, 43.655366950508096 ], [ 0.740060042864525, 43.655480521397209 ], [ 0.740301916271513, 43.655603470439495 ], [ 0.7406997992904, 43.655857484517121 ], [ 0.740916931151574, 43.656042029525473 ], [ 0.74109283318201, 43.656171707520194 ], [ 0.74119023596129, 43.656216939106528 ], [ 0.741390282489123, 43.65626880372411 ], [ 0.741562402255436, 43.656337191051101 ], [ 0.741923172775913, 43.656463506194974 ], [ 0.742296296346305, 43.656622482618971 ], [ 0.742907876078997, 43.656802611117008 ], [ 0.743472668319752, 43.656943057962231 ], [ 0.744178158051821, 43.657131429313615 ], [ 0.744741116151779, 43.65728713423983 ], [ 0.745165398190174, 43.657375148473434 ], [ 0.745519845882544, 43.657410403598831 ], [ 0.745906965016743, 43.657497644332508 ], [ 0.746219293545457, 43.65753202396737 ], [ 0.746387846807649, 43.657565223129161 ], [ 0.746543058176618, 43.657653955781569 ], [ 0.74679203038812, 43.657691521481325 ], [ 0.744917678364453, 43.659038919674252 ], [ 0.74447250002332, 43.659481569843862 ], [ 0.742976091682955, 43.6603281824191 ], [ 0.742767781430261, 43.660296853228296 ], [ 0.742487439653189, 43.660237023104244 ], [ 0.74220454981421, 43.660178939676229 ], [ 0.741985091928313, 43.660115871593284 ], [ 0.741749777077835, 43.660046172554146 ], [ 0.741623057795784, 43.660021036483791 ], [ 0.74142993503592, 43.659981918619621 ], [ 0.741144957842206, 43.659945393090503 ], [ 0.740857645062695, 43.659905217606521 ], [ 0.740683848934788, 43.659879102311152 ], [ 0.740033771219158, 43.660548821273345 ], [ 0.738211563025769, 43.661511022170735 ], [ 0.736701412178391, 43.662387872581419 ], [ 0.73581385667459, 43.663417195761845 ], [ 0.735711911674283, 43.663392568696644 ], [ 0.735397089661156, 43.663295095266825 ], [ 0.735154437533091, 43.663254034636829 ], [ 0.734921128575296, 43.663227570845791 ], [ 0.734509659658929, 43.663191093683977 ], [ 0.73417136048039, 43.663154339288511 ], [ 0.733811964023075, 43.663118044329075 ], [ 0.733167189152685, 43.6630550954239 ], [ 0.732141930451487, 43.662924796526617 ], [ 0.731574251755691, 43.662887750683886 ], [ 0.730226012357541, 43.662803805606735 ], [ 0.729861130402106, 43.662780885613756 ], [ 0.729779609730718, 43.662772882455229 ], [ 0.729489492157191, 43.662740720005168 ], [ 0.728977497950949, 43.662706623593138 ], [ 0.728465486375902, 43.662610412350823 ], [ 0.728250757716677, 43.66299120126186 ], [ 0.727985441614235, 43.663615780606271 ], [ 0.727031129585614, 43.664510415742591 ], [ 0.726426728153205, 43.66514860824077 ], [ 0.725756289110035, 43.665794418635514 ], [ 0.725370529878891, 43.666328257230248 ], [ 0.725165843649223, 43.666955000421069 ], [ 0.724632733651663, 43.668295015541382 ], [ 0.723602369125211, 43.66972724284409 ], [ 0.723383862522233, 43.669920708532622 ] ] ] ] } }
]
}
